{"type": "FeatureCollection", "features": [ {"type": "Feature", "properties": {"norad_id": 36437, "name": "COSMOS 2251 DEB", "group": "cosmos-2251-debris", "lat": -63.1458293565092, "lon": -102.8092822306275, "alt_km": 651.3042505778858, "timestamp": "2025-12-08T08:59:01.163771+00:00", "meta": {"OBJECT_NAME": "COSMOS 2251 DEB", "OBJECT_ID": "1993-036BAL", "EPOCH": "2025-12-07T10:37:54.930432", "MEAN_MOTION": 14.70548023, "ECCENTRICITY": 0.00232535, "INCLINATION": 73.9427, "RA_OF_ASC_NODE": 44.3377, "ARG_OF_PERICENTER": 275.7564, "MEAN_ANOMALY": 84.0955, "EPHEMERIS_TYPE": 0, "CLASSIFICATION_TYPE": "U", "NORAD_CAT_ID": 36437, "ELEMENT_SET_NO": 999, "REV_AT_EPOCH": 65973, "BSTAR": 0.0023397048, "MEAN_MOTION_DOT": 0.00014265, "MEAN_MOTION_DDOT": 0}, "tle": {"line1": "1 36437U 93036BAL 25341.44299688  .00014265  00000+0  23397-2 0  9992", "line2": "2 36437  73.9427  44.3377 0023253 275.7564  84.0955 14.70548023659731"}}, "geometry": {"type": "Point", "coordinates": [-102.8092822306275, -63.1458293565092]}}, {"type": "Feature", "properties": {"norad_id": 36439, "name": "COSMOS 2251 DEB", "group": "cosmos-2251-debris", "lat": -56.106535471697995, "lon": 18.344150252837846, "alt_km": 998.0630026299505, "timestamp": "2025-12-08T08:59:01.163781+00:00", "meta": {"OBJECT_NAME": "COSMOS 2251 DEB", "OBJECT_ID": "1993-036BAN", "EPOCH": "2025-12-06T12:43:47.991648", "MEAN_MOTION": 13.47777832, "ECCENTRICITY": 0.04274607, "INCLINATION": 73.9681, "RA_OF_ASC_NODE": 46.625, "ARG_OF_PERICENTER": 19.776, "MEAN_ANOMALY": 341.9362, "EPHEMERIS_TYPE": 0, "CLASSIFICATION_TYPE": "U", "NORAD_CAT_ID": 36439, "ELEMENT_SET_NO": 999, "REV_AT_EPOCH": 58529, "BSTAR": 0.0013215919, "MEAN_MOTION_DOT": 1.402e-05, "MEAN_MOTION_DDOT": 0}, "tle": {"line1": "1 36439U 93036BAN 25340.53041657  .00001402  00000+0  13216-2 0  9992", "line2": "2 36439  73.9681  46.6250 0427460  19.7760 341.9362 13.47777832585293"}}, "geometry": {"type": "Point", "coordinates": [18.344150252837846, -56.106535471697995]}}, {"type": "Feature", "properties": {"norad_id": 36441, "name": "COSMOS 2251 DEB", "group": "cosmos-2251-debris", "lat": 35.4847541669779, "lon": 166.90129768734099, "alt_km": 488.7659643523348, "timestamp": "2025-12-08T08:59:01.163792+00:00", "meta": {"OBJECT_NAME": "COSMOS 2251 DEB", "OBJECT_ID": "1993-036BAQ", "EPOCH": "2025-12-04T18:18:25.005024", "MEAN_MOTION": 15.06603971, "ECCENTRICITY": 0.01084902, "INCLINATION": 73.8352, "RA_OF_ASC_NODE": 6.3404, "ARG_OF_PERICENTER": 107.4279, "MEAN_ANOMALY": 253.8807, "EPHEMERIS_TYPE": 0, "CLASSIFICATION_TYPE": "U", "NORAD_CAT_ID": 36441, "ELEMENT_SET_NO": 999, "REV_AT_EPOCH": 86845, "BSTAR": 0.00090032635, "MEAN_MOTION_DOT": 0.00015248, "MEAN_MOTION_DDOT": 0}, "tle": {"line1": "1 36441U 93036BAQ 25338.76278941  .00015248  00000+0  90033-3 0  9991", "line2": "2 36441  73.8352   6.3404 0108490 107.4279 253.8807 15.06603971868459"}}, "geometry": {"type": "Point", "coordinates": [166.90129768734099, 35.4847541669779]}}, {"type": "Feature", "properties": {"norad_id": 36442, "name": "COSMOS 2251 DEB", "group": "cosmos-2251-debris", "lat": -56.071190727921305, "lon": 23.258431740659557, "alt_km": 483.8848444380492, "timestamp": "2025-12-08T08:59:01.163802+00:00", "meta": {"OBJECT_NAME": "COSMOS 2251 DEB", "OBJECT_ID": "1993-036BAR", "EPOCH": "2025-12-06T22:39:26.591328", "MEAN_MOTION": 15.26969536, "ECCENTRICITY": 0.00090287, "INCLINATION": 73.9541, "RA_OF_ASC_NODE": 51.6347, "ARG_OF_PERICENTER": 319.5798, "MEAN_ANOMALY": 40.473, "EPHEMERIS_TYPE": 0, "CLASSIFICATION_TYPE": "U", "NORAD_CAT_ID": 36442, "ELEMENT_SET_NO": 999, "REV_AT_EPOCH": 85827, "BSTAR": 0.0074976763, "MEAN_MOTION_DOT": 0.00204314, "MEAN_MOTION_DDOT": 0}, "tle": {"line1": "1 36442U 93036BAR 25340.94405777  .00204314  00000+0  74977-2 0  9996", "line2": "2 36442  73.9541  51.6347 0009028 319.5798  40.4730 15.26969536858277"}}, "geometry": {"type": "Point", "coordinates": [23.258431740659557, -56.071190727921305]}}, {"type": "Feature", "properties": {"norad_id": 36451, "name": "COSMOS 2251 DEB", "group": "cosmos-2251-debris", "lat": 67.02956154225967, "lon": 120.2962941026598, "alt_km": 758.2692743989983, "timestamp": "2025-12-08T08:59:01.163812+00:00", "meta": {"OBJECT_NAME": "COSMOS 2251 DEB", "OBJECT_ID": "1993-036BBA", "EPOCH": "2025-12-06T07:23:52.845792", "MEAN_MOTION": 14.18714463, "ECCENTRICITY": 0.01842542, "INCLINATION": 73.9539, "RA_OF_ASC_NODE": 346.7676, "ARG_OF_PERICENTER": 172.6411, "MEAN_ANOMALY": 187.7508, "EPHEMERIS_TYPE": 0, "CLASSIFICATION_TYPE": "U", "NORAD_CAT_ID": 36451, "ELEMENT_SET_NO": 999, "REV_AT_EPOCH": 84134, "BSTAR": 0.0013122334, "MEAN_MOTION_DOT": 3.2e-05, "MEAN_MOTION_DDOT": 0}, "tle": {"line1": "1 36451U 93036BBA 25340.30825053  .00003200  00000+0  13122-2 0  9995", "line2": "2 36451  73.9539 346.7676 0184254 172.6411 187.7508 14.18714463841347"}}, "geometry": {"type": "Point", "coordinates": [120.2962941026598, 67.02956154225967]}}, {"type": "Feature", "properties": {"norad_id": 36453, "name": "COSMOS 2251 DEB", "group": "cosmos-2251-debris", "lat": -11.36323289994228, "lon": -15.99931815857807, "alt_km": 750.569270217662, "timestamp": "2025-12-08T08:59:01.163822+00:00", "meta": {"OBJECT_NAME": "COSMOS 2251 DEB", "OBJECT_ID": "1993-036BBC", "EPOCH": "2025-12-05T22:56:55.070880", "MEAN_MOTION": 14.52531816, "ECCENTRICITY": 0.00702998, "INCLINATION": 73.9232, "RA_OF_ASC_NODE": 165.2675, "ARG_OF_PERICENTER": 70.5371, "MEAN_ANOMALY": 80.8599, "EPHEMERIS_TYPE": 0, "CLASSIFICATION_TYPE": "U", "NORAD_CAT_ID": 36453, "ELEMENT_SET_NO": 999, "REV_AT_EPOCH": 84369, "BSTAR": 0.0014781095, "MEAN_MOTION_DOT": 6.214e-05, "MEAN_MOTION_DDOT": 0}, "tle": {"line1": "1 36453U 93036BBC 25339.95619295  .00006214  00000+0  14781-2 0  9995", "line2": "2 36453  73.9232 165.2675 0070299  70.5371  80.8599 14.52531816843696"}}, "geometry": {"type": "Point", "coordinates": [-15.99931815857807, -11.36323289994228]}}, {"type": "Feature", "properties": {"norad_id": 36459, "name": "COSMOS 2251 DEB", "group": "cosmos-2251-debris", "lat": 17.376681329114387, "lon": -177.4423112797603, "alt_km": 758.5811243685739, "timestamp": "2025-12-08T08:59:01.163832+00:00", "meta": {"OBJECT_NAME": "COSMOS 2251 DEB", "OBJECT_ID": "1993-036BBJ", "EPOCH": "2025-11-27T21:25:14.011392", "MEAN_MOTION": 14.2626117, "ECCENTRICITY": 0.0114133, "INCLINATION": 74.0487, "RA_OF_ASC_NODE": 26.6161, "ARG_OF_PERICENTER": 126.4072, "MEAN_ANOMALY": 234.7668, "EPHEMERIS_TYPE": 0, "CLASSIFICATION_TYPE": "U", "NORAD_CAT_ID": 36459, "ELEMENT_SET_NO": 999, "REV_AT_EPOCH": 7670, "BSTAR": 0.0017749, "MEAN_MOTION_DOT": 4.537e-05, "MEAN_MOTION_DDOT": 0}, "tle": {"line1": "1 36459U 93036BBJ 25331.89252328  .00004537  00000+0  17749-2 0  9999", "line2": "2 36459  74.0487  26.6161 0114133 126.4072 234.7668 14.26261170 76702"}}, "geometry": {"type": "Point", "coordinates": [-177.4423112797603, 17.376681329114387]}}, {"type": "Feature", "properties": {"norad_id": 36470, "name": "COSMOS 2251 DEB", "group": "cosmos-2251-debris", "lat": 12.974824466686727, "lon": -92.68298744988864, "alt_km": 544.695347758844, "timestamp": "2025-12-08T08:59:01.163843+00:00", "meta": {"OBJECT_NAME": "COSMOS 2251 DEB", "OBJECT_ID": "1993-036BBV", "EPOCH": "2025-12-02T03:03:18.136800", "MEAN_MOTION": 15.05586615, "ECCENTRICITY": 0.00218493, "INCLINATION": 73.8455, "RA_OF_ASC_NODE": 276.4446, "ARG_OF_PERICENTER": 104.1241, "MEAN_ANOMALY": 256.2378, "EPHEMERIS_TYPE": 0, "CLASSIFICATION_TYPE": "U", "NORAD_CAT_ID": 36470, "ELEMENT_SET_NO": 999, "REV_AT_EPOCH": 65934, "BSTAR": 0.0040110233, "MEAN_MOTION_DOT": 0.00058582, "MEAN_MOTION_DDOT": 0}, "tle": {"line1": "1 36470U 93036BBV 25336.12729325  .00058582  00000+0  40110-2 0  9996", "line2": "2 36470  73.8455 276.4446 0021849 104.1241 256.2378 15.05586615659346"}}, "geometry": {"type": "Point", "coordinates": [-92.68298744988864, 12.974824466686727]}}, {"type": "Feature", "properties": {"norad_id": 36528, "name": "COSMOS 2251 DEB", "group": "cosmos-2251-debris", "lat": -26.682081290804376, "lon": -18.54476841492832, "alt_km": 734.1325626188573, "timestamp": "2025-12-08T08:59:01.163853+00:00", "meta": {"OBJECT_NAME": "COSMOS 2251 DEB", "OBJECT_ID": "1993-036BCN", "EPOCH": "2025-12-07T18:35:16.209888", "MEAN_MOTION": 14.3059773, "ECCENTRICITY": 0.00852102, "INCLINATION": 74.0157, "RA_OF_ASC_NODE": 154.2656, "ARG_OF_PERICENTER": 204.8135, "MEAN_ANOMALY": 154.8907, "EPHEMERIS_TYPE": 0, "CLASSIFICATION_TYPE": "U", "NORAD_CAT_ID": 36528, "ELEMENT_SET_NO": 999, "REV_AT_EPOCH": 64356, "BSTAR": 0.0018462235, "MEAN_MOTION_DOT": 4.991e-05, "MEAN_MOTION_DDOT": 0}, "tle": {"line1": "1 36528U 93036BCN 25341.77449317  .00004991  00000+0  18462-2 0  9997", "line2": "2 36528  74.0157 154.2656 0085210 204.8135 154.8907 14.30597730643565"}}, "geometry": {"type": "Point", "coordinates": [-18.54476841492832, -26.682081290804376]}}, {"type": "Feature", "properties": {"norad_id": 36533, "name": "COSMOS 2251 DEB", "group": "cosmos-2251-debris", "lat": 60.32621610672846, "lon": 153.24736010665077, "alt_km": 750.8816841978214, "timestamp": "2025-12-08T08:59:01.163862+00:00", "meta": {"OBJECT_NAME": "COSMOS 2251 DEB", "OBJECT_ID": "1993-036BCT", "EPOCH": "2025-12-07T19:26:11.167872", "MEAN_MOTION": 14.49787559, "ECCENTRICITY": 0.00491855, "INCLINATION": 74.0112, "RA_OF_ASC_NODE": 124.0955, "ARG_OF_PERICENTER": 274.1122, "MEAN_ANOMALY": 85.4417, "EPHEMERIS_TYPE": 0, "CLASSIFICATION_TYPE": "U", "NORAD_CAT_ID": 36533, "ELEMENT_SET_NO": 999, "REV_AT_EPOCH": 84413, "BSTAR": 0.0008869214, "MEAN_MOTION_DOT": 3.445e-05, "MEAN_MOTION_DDOT": 0}, "tle": {"line1": "1 36533U 93036BCT 25341.80985148  .00003445  00000+0  88692-3 0  9990", "line2": "2 36533  74.0112 124.0955 0049185 274.1122  85.4417 14.49787559844137"}}, "geometry": {"type": "Point", "coordinates": [153.24736010665077, 60.32621610672846]}}]}